[{"OBJECT_NAME":"STARLINK-35083","OBJECT_ID":"2025-191M","EPOCH":"2026-03-09T14:41:27.478176","MEAN_MOTION":15.05660245,"ECCENTRICITY":0.00023,"INCLINATION":97.6017,"RA_OF_ASC_NODE":301.3881,"ARG_OF_PERICENTER":80.2183,"MEAN_ANOMALY":279.9303,"EPHEMERIS_TYPE":0,"CLASSIFICATION_TYPE":"U","NORAD_CAT_ID":65390,"ELEMENT_SET_NO":999,"REV_AT_EPOCH":3025,"BSTAR":1.1889e-5,"MEAN_MOTION_DOT":1.11e-6,"MEAN_MOTION_DDOT":0},{"OBJECT_NAME":"CZ-2D DEB","OBJECT_ID":"2017-060B","EPOCH":"2026-03-09T14:15:36.855648","MEAN_MOTION":14.99543568,"ECCENTRICITY":0.002893,"INCLINATION":97.5408,"RA_OF_ASC_NODE":90.0945,"ARG_OF_PERICENTER":284.1616,"MEAN_ANOMALY":75.6394,"EPHEMERIS_TYPE":0,"CLASSIFICATION_TYPE":"U","NORAD_CAT_ID":44609,"ELEMENT_SET_NO":999,"REV_AT_EPOCH":45025,"BSTAR":0.00057261,"MEAN_MOTION_DOT":7.042e-5,"MEAN_MOTION_DDOT":0}]
